HXMT (HUIYAN)           
1 42758U 17034A   26084.63983966  .00005038  00000+0  25404-3 0  9994
2 42758  43.0145 287.9837 0032322 333.2583  26.6598 15.17663809484961
SAOCOM 1A               
1 43641U 18076A   26084.62549716  .00000950  00000+0  12591-3 0  9994
2 43641  97.8905 272.5731 0001519  87.1142 273.0245 14.82159291403725
H-2A R/B                
1 43682U 18084L   26084.50466467  .00020811  00000+0  48502-3 0  9995
2 43682  98.8710 305.2796 0024066 330.4775  29.5107 15.42005973408212
SAOCOM 1B               
1 46265U 20059A   26084.65672719  .00000159  00000+0  26552-4 0  9990
2 46265  97.8904 271.7017 0001467  86.0290 274.1091 14.82151313301119
CSS (TIANHE)            
1 48274U 21035A   26084.51731061  .00021659  00000+0  24918-3 0  9999
2 48274  41.4665 111.7955 0004560  19.2317 340.8694 15.61472040280082
COSMOS 2550             
1 48865U 21056A   26084.62359551 -.00000181  00000+0  33814-6 0  9996
2 48865  67.1433 352.6841 0008329 269.7204  90.2996 15.33837463265908
CZ-2C R/B               
1 52794U 22058K   26084.45098805  .00031308  00000+0  43994-3 0  9999
2 52794  50.1872 237.1422 0041554 268.1846  91.4366 15.55351120212582
CZ-2C R/B               
1 54039U 22132E   26084.44567851  .00049575  00000+0  53469-3 0  9990
2 54039  97.2967  88.2586 0018400  40.4738 319.7886 15.63313395192833
GSLV R/B                
1 54149U 22138AN  26084.49817565  .00002746  00000+0  23563-3 0  9994
2 54149  87.3865 161.0707 0024109  94.4790 265.9197 14.96876968186292
XRISM                   
1 57800U 23137A   26084.55460688  .00005629  00000+0  31697-3 0  9998
2 57800  31.0012 181.0334 0007913 199.2588 160.7752 15.11676926140198
ACS3                    
1 59588U 24077B   26084.55069062  .00020432  00000+0  16131-1 0  9991
2 59588  97.1985  22.0981 0071068  39.7528 320.8814 13.90324412 96408
SZ-21 MODULE            
1 66515U 25246C   26084.41173396  .00034230  00000+0  28093-3 0  9992
2 66515  41.4741 106.4894 0001002 208.3621 151.7166 15.69739008 20549
